STARLINK-2185           
1 47767U 21017AX  25289.06086541  .00000199  00000+0  32245-4 0  9996
2 47767  53.0534 140.8831 0001560  83.0673 277.0493 15.06395347255981
STARLINK-2193           
1 47770U 21017BA  25289.05213613  .00014771  00000+0  10099-2 0  9993
2 47770  53.0536 135.9230 0001629  89.2103 270.9073 15.06344069256024
STARLINK-2194           
1 47771U 21017BB  25288.86413224  .00000529  00000+0  54402-4 0  9996
2 47771  53.0526 136.7652 0001760  90.1416 269.9774 15.06398992256003
STARLINK-2195           
1 47772U 21017BC  25288.98623253  .00002562  00000+0  19088-3 0  9994
2 47772  53.0511 151.2181 0001549  93.7756 266.3410 15.06394305255784
STARLINK-2196           
1 47773U 21017BD  25289.04888477  .00000709  00000+0  66472-4 0  9995
2 47773  53.0566 150.9370 0001578  90.1882 269.9288 15.06396217255780
STARLINK-2209           
1 47776U 21017BG  25289.01664009  .00004221  00000+0  30214-3 0  9995
2 47776  53.0550 141.0832 0001593  89.0277 271.0895 15.06391860255947
STARLINK-2211           
1 47778U 21017BJ  25289.11983455 -.00004802  00000+0 -30369-3 0  9995
2 47778  53.0529 140.6166 0001474  98.9342 261.1813 15.06402662255954
STARLINK-2213           
1 47780U 21017BL  25288.88024935  .00004560  00000+0  32496-3 0  9992
2 47780  53.0540 141.6964 0001480 101.7923 258.3233 15.06386505255953
STARLINK-2257           
1 47787U 21018A   25288.99821375  .00009915  00000+0  68361-3 0  9994
2 47787  53.0559 181.1649 0001648  88.4499 271.6679 15.06399433254780
STARLINK-2314           
1 47788U 21018B   25289.00972635  .00000345  00000+0  42034-4 0  9992
2 47788  53.0512 156.1133 0001237  92.6131 267.5000 15.06392809255158
STARLINK-2315           
1 47789U 21018C   25289.05902308  .00000060  00000+0  22944-4 0  9990
2 47789  53.0530 160.8921 0001111  80.1942 279.9172 15.06394046255083
STARLINK-2319           
1 47790U 21018D   25288.76875956  .00003970  00000+0  28534-3 0  9990
2 47790  53.0527 152.1958 0001451  93.9562 266.1593 15.06389377255189
STARLINK-2322           
1 47791U 21018E   25288.98712816 -.00007740  00000+0 -50094-3 0  9997
2 47791  53.0551 181.2149 0001456  74.5022 285.6127 15.06423337254793
STARLINK-2334           
1 47792U 21018F   25288.93371014  .00007268  00000+0  50637-3 0  9990
2 47792  53.0496 161.4542 0001952  86.3881 273.7331 15.06398687255069
STARLINK-2338           
1 47793U 21018G   25289.01479338  .00004354  00000+0  31108-3 0  9994
2 47793  53.0523 161.0892 0001452  91.8331 268.2824 15.06393772255067
STARLINK-2373           
1 47796U 21018K   25289.02217096  .00009564  00000+0  66019-3 0  9996
2 47796  53.0519 161.0570 0001164  92.5412 267.5710 15.06394022255072
STARLINK-2377           
1 47797U 21018L   25289.12489856  .00003828  00000+0  27587-3 0  9997
2 47797  53.0538 185.5958 0001583  94.8146 265.3024 15.06382296254735
