[{"OBJECT_NAME":"STARLINK-2185","OBJECT_ID":"2021-017AX","EPOCH":"2025-10-16T01:27:38.771424","MEAN_MOTION":15.06395347,"ECCENTRICITY":0.000156,"INCLINATION":53.0534,"RA_OF_ASC_NODE":140.8831,"ARG_OF_PERICENTER":83.0673,"MEAN_ANOMALY":277.0493,"EPHEMERIS_TYPE":0,"CLASSIFICATION_TYPE":"U","NORAD_CAT_ID":47767,"ELEMENT_SET_NO":999,"REV_AT_EPOCH":25598,"BSTAR":3.2245e-5,"MEAN_MOTION_DOT":1.99e-6,"MEAN_MOTION_DDOT":0},{"OBJECT_NAME":"STARLINK-2193","OBJECT_ID":"2021-017BA","EPOCH":"2025-10-16T01:15:04.561632","MEAN_MOTION":15.06344069,"ECCENTRICITY":0.0001629,"INCLINATION":53.0536,"RA_OF_ASC_NODE":135.923,"ARG_OF_PERICENTER":89.2103,"MEAN_ANOMALY":270.9073,"EPHEMERIS_TYPE":0,"CLASSIFICATION_TYPE":"U","NORAD_CAT_ID":47770,"ELEMENT_SET_NO":999,"REV_AT_EPOCH":25602,"BSTAR":0.0010099,"MEAN_MOTION_DOT":0.00014771,"MEAN_MOTION_DDOT":0},{"OBJECT_NAME":"STARLINK-2194","OBJECT_ID":"2021-017BB","EPOCH":"2025-10-15T20:44:21.025536","MEAN_MOTION":15.06398992,"ECCENTRICITY":0.00017604,"INCLINATION":53.0526,"RA_OF_ASC_NODE":136.7652,"ARG_OF_PERICENTER":90.1416,"MEAN_ANOMALY":269.9774,"EPHEMERIS_TYPE":0,"CLASSIFICATION_TYPE":"U","NORAD_CAT_ID":47771,"ELEMENT_SET_NO":999,"REV_AT_EPOCH":25600,"BSTAR":5.4402322e-5,"MEAN_MOTION_DOT":5.29e-6,"MEAN_MOTION_DDOT":0},{"OBJECT_NAME":"STARLINK-2195","OBJECT_ID":"2021-017BC","EPOCH":"2025-10-15T23:40:10.490592","MEAN_MOTION":15.06394305,"ECCENTRICITY":0.0001549,"INCLINATION":53.0511,"RA_OF_ASC_NODE":151.2181,"ARG_OF_PERICENTER":93.7756,"MEAN_ANOMALY":266.341,"EPHEMERIS_TYPE":0,"CLASSIFICATION_TYPE":"U","NORAD_CAT_ID":47772,"ELEMENT_SET_NO":999,"REV_AT_EPOCH":25578,"BSTAR":0.00019088,"MEAN_MOTION_DOT":2.562e-5,"MEAN_MOTION_DDOT":0},{"OBJECT_NAME":"STARLINK-2196","OBJECT_ID":"2021-017BD","EPOCH":"2025-10-16T01:10:23.644128","MEAN_MOTION":15.06396217,"ECCENTRICITY":0.0001578,"INCLINATION":53.0566,"RA_OF_ASC_NODE":150.937,"ARG_OF_PERICENTER":90.1882,"MEAN_ANOMALY":269.9288,"EPHEMERIS_TYPE":0,"CLASSIFICATION_TYPE":"U","NORAD_CAT_ID":47773,"ELEMENT_SET_NO":999,"REV_AT_EPOCH":25578,"BSTAR":6.6472e-5,"MEAN_MOTION_DOT":7.09e-6,"MEAN_MOTION_DDOT":0},{"OBJECT_NAME":"STARLINK-2209","OBJECT_ID":"2021-017BG","EPOCH":"2025-10-16T00:23:57.703776","MEAN_MOTION":15.0639186,"ECCENTRICITY":0.0001593,"INCLINATION":53.055,"RA_OF_ASC_NODE":141.0832,"ARG_OF_PERICENTER":89.0277,"MEAN_ANOMALY":271.0895,"EPHEMERIS_TYPE":0,"CLASSIFICATION_TYPE":"U","NORAD_CAT_ID":47776,"ELEMENT_SET_NO":999,"REV_AT_EPOCH":25594,"BSTAR":0.00030214,"MEAN_MOTION_DOT":4.221e-5,"MEAN_MOTION_DDOT":0},{"OBJECT_NAME":"STARLINK-2211","OBJECT_ID":"2021-017BJ","EPOCH":"2025-10-16T02:52:33.705120","MEAN_MOTION":15.06402662,"ECCENTRICITY":0.0001474,"INCLINATION":53.0529,"RA_OF_ASC_NODE":140.6166,"ARG_OF_PERICENTER":98.9342,"MEAN_ANOMALY":261.1813,"EPHEMERIS_TYPE":0,"CLASSIFICATION_TYPE":"U","NORAD_CAT_ID":47778,"ELEMENT_SET_NO":999,"REV_AT_EPOCH":25595,"BSTAR":-0.00030369,"MEAN_MOTION_DOT":-4.802e-5,"MEAN_MOTION_DDOT":0},{"OBJECT_NAME":"STARLINK-2213","OBJECT_ID":"2021-017BL","EPOCH":"2025-10-15T21:07:33.543840","MEAN_MOTION":15.06386505,"ECCENTRICITY":0.00014806,"INCLINATION":53.054,"RA_OF_ASC_NODE":141.6964,"ARG_OF_PERICENTER":101.7923,"MEAN_ANOMALY":258.3233,"EPHEMERIS_TYPE":0,"CLASSIFICATION_TYPE":"U","NORAD_CAT_ID":47780,"ELEMENT_SET_NO":999,"REV_AT_EPOCH":25595,"BSTAR":0.00032496246,"MEAN_MOTION_DOT":4.56e-5,"MEAN_MOTION_DDOT":0},{"OBJECT_NAME":"STARLINK-2257","OBJECT_ID":"2021-018A","EPOCH":"2025-10-15T23:57:25.668000","MEAN_MOTION":15.06399433,"ECCENTRICITY":0.0001648,"INCLINATION":53.0559,"RA_OF_ASC_NODE":181.1649,"ARG_OF_PERICENTER":88.4499,"MEAN_ANOMALY":271.6679,"EPHEMERIS_TYPE":0,"CLASSIFICATION_TYPE":"U","NORAD_CAT_ID":47787,"ELEMENT_SET_NO":999,"REV_AT_EPOCH":25478,"BSTAR":0.00068361,"MEAN_MOTION_DOT":9.915e-5,"MEAN_MOTION_DDOT":0},{"OBJECT_NAME":"STARLINK-2314","OBJECT_ID":"2021-018B","EPOCH":"2025-10-16T00:14:00.356640","MEAN_MOTION":15.06392809,"ECCENTRICITY":0.0001237,"INCLINATION":53.0512,"RA_OF_ASC_NODE":156.1133,"ARG_OF_PERICENTER":92.6131,"MEAN_ANOMALY":267.5,"EPHEMERIS_TYPE":0,"CLASSIFICATION_TYPE":"U","NORAD_CAT_ID":47788,"ELEMENT_SET_NO":999,"REV_AT_EPOCH":25515,"BSTAR":4.2034e-5,"MEAN_MOTION_DOT":3.45e-6,"MEAN_MOTION_DDOT":0},{"OBJECT_NAME":"STARLINK-2315","OBJECT_ID":"2021-018C","EPOCH":"2025-10-16T01:24:59.594112","MEAN_MOTION":15.06394046,"ECCENTRICITY":0.0001111,"INCLINATION":53.053,"RA_OF_ASC_NODE":160.8921,"ARG_OF_PERICENTER":80.1942,"MEAN_ANOMALY":279.9172,"EPHEMERIS_TYPE":0,"CLASSIFICATION_TYPE":"U","NORAD_CAT_ID":47789,"ELEMENT_SET_NO":999,"REV_AT_EPOCH":25508,"BSTAR":2.2944e-5,"MEAN_MOTION_DOT":6.0e-7,"MEAN_MOTION_DDOT":0},{"OBJECT_NAME":"STARLINK-2319","OBJECT_ID":"2021-018D","EPOCH":"2025-10-15T18:27:00.825984","MEAN_MOTION":15.06389377,"ECCENTRICITY":0.00014516,"INCLINATION":53.0527,"RA_OF_ASC_NODE":152.1958,"ARG_OF_PERICENTER":93.9562,"MEAN_ANOMALY":266.1593,"EPHEMERIS_TYPE":0,"CLASSIFICATION_TYPE":"U","NORAD_CAT_ID":47790,"ELEMENT_SET_NO":999,"REV_AT_EPOCH":25518,"BSTAR":0.00028533674,"MEAN_MOTION_DOT":3.97e-5,"MEAN_MOTION_DDOT":0},{"OBJECT_NAME":"STARLINK-2322","OBJECT_ID":"2021-018E","EPOCH":"2025-10-15T23:41:27.873024","MEAN_MOTION":15.06423337,"ECCENTRICITY":0.0001456,"INCLINATION":53.0551,"RA_OF_ASC_NODE":181.2149,"ARG_OF_PERICENTER":74.5022,"MEAN_ANOMALY":285.6127,"EPHEMERIS_TYPE":0,"CLASSIFICATION_TYPE":"U","NORAD_CAT_ID":47791,"ELEMENT_SET_NO":999,"REV_AT_EPOCH":25479,"BSTAR":-0.00050094,"MEAN_MOTION_DOT":-7.74e-5,"MEAN_MOTION_DDOT":0},{"OBJECT_NAME":"STARLINK-2334","OBJECT_ID":"2021-018F","EPOCH":"2025-10-15T22:24:32.556096","MEAN_MOTION":15.06398687,"ECCENTRICITY":0.0001952,"INCLINATION":53.0496,"RA_OF_ASC_NODE":161.4542,"ARG_OF_PERICENTER":86.3881,"MEAN_ANOMALY":273.7331,"EPHEMERIS_TYPE":0,"CLASSIFICATION_TYPE":"U","NORAD_CAT_ID":47792,"ELEMENT_SET_NO":999,"REV_AT_EPOCH":25506,"BSTAR":0.00050637,"MEAN_MOTION_DOT":7.268e-5,"MEAN_MOTION_DDOT":0},{"OBJECT_NAME":"STARLINK-2338","OBJECT_ID":"2021-018G","EPOCH":"2025-10-16T00:21:18.148032","MEAN_MOTION":15.06393772,"ECCENTRICITY":0.0001452,"INCLINATION":53.0523,"RA_OF_ASC_NODE":161.0892,"ARG_OF_PERICENTER":91.8331,"MEAN_ANOMALY":268.2824,"EPHEMERIS_TYPE":0,"CLASSIFICATION_TYPE":"U","NORAD_CAT_ID":47793,"ELEMENT_SET_NO":999,"REV_AT_EPOCH":25506,"BSTAR":0.00031108,"MEAN_MOTION_DOT":4.354e-5,"MEAN_MOTION_DDOT":0},{"OBJECT_NAME":"STARLINK-2373","OBJECT_ID":"2021-018K","EPOCH":"2025-10-16T00:31:55.570944","MEAN_MOTION":15.06394022,"ECCENTRICITY":0.0001164,"INCLINATION":53.0519,"RA_OF_ASC_NODE":161.057,"ARG_OF_PERICENTER":92.5412,"MEAN_ANOMALY":267.571,"EPHEMERIS_TYPE":0,"CLASSIFICATION_TYPE":"U","NORAD_CAT_ID":47796,"ELEMENT_SET_NO":999,"REV_AT_EPOCH":25507,"BSTAR":0.00066019,"MEAN_MOTION_DOT":9.564e-5,"MEAN_MOTION_DDOT":0},{"OBJECT_NAME":"STARLINK-2377","OBJECT_ID":"2021-018L","EPOCH":"2025-10-16T02:59:51.235584","MEAN_MOTION":15.06382296,"ECCENTRICITY":0.0001583,"INCLINATION":53.0538,"RA_OF_ASC_NODE":185.5958,"ARG_OF_PERICENTER":94.8146,"MEAN_ANOMALY":265.3024,"EPHEMERIS_TYPE":0,"CLASSIFICATION_TYPE":"U","NORAD_CAT_ID":47797,"ELEMENT_SET_NO":999,"REV_AT_EPOCH":25473,"BSTAR":0.00027587,"MEAN_MOTION_DOT":3.828e-5,"MEAN_MOTION_DDOT":0}]
